NORAD_CAT_ID,OBJECT_NAME,OBJECT_TYPE,EPOCH,MEAN_MOTION,ECCENTRICITY,INCLINATION,RA_OF_ASC_NODE,ARG_OF_PERICENTER,MEAN_ANOMALY,BSTAR,MEAN_MOTION_DOT,MEAN_MOTION_DDOT,TLE_LINE0,TLE_LINE1,TLE_LINE2,SEMIMAJOR_AXIS,PERIOD,APOGEE,PERIGEE,DECAYED
52272.0,STARLINK-3781,PAYLOAD,2024-07-18 05:03:33,15.08830556,0.000135,53.2163,280.3304,89.827,270.2876,3.3619e-05,2.47e-06,0.0,0 STARLINK-3781,1 52272U 22041M   24200.21080900  .00000247  00000-0  33619-4 0  9994,2 52272  53.2163 280.3304 0001350  89.8270 270.2876 15.08830556125093,6917.909,95.438,540.708,538.84,0.0
52272.0,STARLINK-3781,PAYLOAD,2024-07-18 13:00:29,15.08839127,0.0001298,53.2159,278.8433,91.7818,268.3323,3.2188e-06,-2.37e-06,0.0,0 STARLINK-3781,1 52272U 22041M   24200.54200566 -.00000237  00000-0  32188-5 0  9993,2 52272  53.2159 278.8433 0001298  91.7818 268.3323 15.08839127123911,6917.883,95.438,540.646,538.85,0.0
52272.0,STARLINK-3781,PAYLOAD,2024-07-19 11:15:52,15.08848606,0.0001333,53.2151,274.679,83.995,276.1194,0.00029011,4.333e-05,0.0,0 STARLINK-3781,1 52272U 22041M   24201.46936088  .00004333  00000-0  29011-3 0  9999,2 52272  53.2151 274.6790 0001333  83.9950 276.1194 15.08848606124054,6917.854,95.437,540.641,538.797,0.0
52272.0,STARLINK-3781,PAYLOAD,2024-07-20 04:45:07,15.08842932,0.0001531,53.2137,271.4095,85.6981,274.4186,0.00018115,2.596e-05,0.0,0 STARLINK-3781,1 52272U 22041M   24202.19800381  .00002596  00000-0  18115-3 0  9998,2 52272  53.2137 271.4095 0001531  85.6981 274.4186 15.08842932125390,6917.871,95.437,540.796,538.677,0.0
52272.0,STARLINK-3781,PAYLOAD,2024-07-20 11:06:40,15.0884318,0.0001467,53.2161,270.2195,78.6286,281.4871,0.00020721,3.012e-05,0.0,0 STARLINK-3781,1 52272U 22041M   24202.46296557  .00003012  00000-0  20721-3 0  9992,2 52272  53.2161 270.2195 0001467  78.6286 281.4871 15.08843180124207,6917.871,95.437,540.751,538.721,0.0
52272.0,STARLINK-3781,PAYLOAD,2024-07-21 04:35:54,15.08841046,0.0001629,53.2157,266.9485,85.3947,274.7231,5.2477e-05,5.47e-06,0.0,0 STARLINK-3781,1 52272U 22041M   24203.19160451  .00000547  00000-0  52477-4 0  9990,2 52272  53.2157 266.9485 0001629  85.3947 274.7231 15.08841046125547,6917.877,95.437,540.869,538.615,0.0
52272.0,STARLINK-3781,PAYLOAD,2024-07-21 10:57:27,15.08845486,0.0001372,53.2166,265.7583,83.0703,277.0445,5.2236e-06,-2.05e-06,0.0,0 STARLINK-3781,1 52272U 22041M   24203.45656250 -.00000205  00000-0  52236-5 0  9992,2 52272  53.2166 265.7583 0001372  83.0703 277.0445 15.08845486124356,6917.864,95.437,540.678,538.779,0.0
52272.0,STARLINK-3781,PAYLOAD,2024-07-22 09:12:50,15.08842088,0.0001549,53.2165,261.5952,80.9049,279.2118,5.8414e-05,6.42e-06,0.0,0 STARLINK-3781,1 52272U 22041M   24204.38392299  .00000642  00000-0  58414-4 0  9992,2 52272  53.2165 261.5952 0001549  80.9049 279.2118 15.08842088125722,6917.874,95.437,540.811,538.667,0.0
52272.0,STARLINK-3781,PAYLOAD,2024-07-23 10:39:00,15.08841929,0.0001639,53.2168,256.8392,105.9901,254.1272,0.00011724,1.578e-05,0.0,0 STARLINK-3781,1 52272U 22041M   24205.44376143  .00001578  00000-0  11724-3 0  9991,2 52272  53.2168 256.8392 0001639 105.9901 254.1272 15.08841929125888,6917.874,95.437,540.873,538.606,0.0
52272.0,STARLINK-3781,PAYLOAD,2024-07-24 04:08:16,15.08831176,0.0001329,53.2154,253.5666,93.0013,267.1131,-3.4802e-05,-8.42e-06,0.0,0 STARLINK-3781,1 52272U 22041M   24206.17241448 -.00000842  00000-0 -34802-4 0  9999,2 52272  53.2154 253.5666 0001329  93.0013 267.1131 15.08831176125991,6917.907,95.438,540.692,538.853,0.0
52272.0,STARLINK-3781,PAYLOAD,2024-07-24 12:05:12,15.08831346,0.0001406,53.2151,252.0796,92.7743,267.341,-2.9133e-05,-7.51e-06,0.0,0 STARLINK-3781,1 52272U 22041M   24206.50361550 -.00000751  00000-0 -29133-4 0  9993,2 52272  53.2151 252.0796 0001406  92.7743 267.3410 15.08831346124819,6917.907,95.438,540.744,538.799,0.0
52272.0,STARLINK-3781,PAYLOAD,2024-07-25 10:20:35,15.08845232,0.0001344,53.2145,247.9156,89.1949,270.9197,7.2879e-05,8.72e-06,0.0,0 STARLINK-3781,1 52272U 22041M   24207.43096551  .00000872  00000-0  72879-4 0  9999,2 52272  53.2145 247.9156 0001344  89.1949 270.9197 15.08845232126187,6917.864,95.437,540.659,538.8,0.0
52272.0,STARLINK-3781,PAYLOAD,2024-07-26 10:11:22,15.08840356,0.0001536,53.2153,243.4539,86.3794,273.7374,0.00016357,2.316e-05,0.0,0 STARLINK-3781,1 52272U 22041M   24208.42456685  .00002316  00000-0  16357-3 0  9990,2 52272  53.2153 243.4539 0001536  86.3794 273.7374 15.08840356126339,6917.879,95.438,540.807,538.682,0.0
52272.0,STARLINK-3781,PAYLOAD,2024-07-26 19:43:41,15.08840538,0.0001625,53.2154,241.6691,85.0152,275.1026,0.00013218,1.816e-05,0.0,0 STARLINK-3781,1 52272U 22041M   24208.82200754  .00001816  00000-0  13218-3 0  9995,2 52272  53.2154 241.6691 0001625  85.0152 275.1026 15.08840538125164,6917.879,95.438,540.868,538.62,0.0
52272.0,STARLINK-3781,PAYLOAD,2024-07-27 06:51:23,15.08844304,0.0001608,53.2153,239.5885,86.1337,273.9839,1.5254e-05,-4.5e-07,0.0,0 STARLINK-3781,1 52272U 22041M   24209.28568753 -.00000045  00000-0  15254-4 0  9999,2 52272  53.2153 239.5885 0001608  86.1337 273.9839 15.08844304125233,6917.867,95.437,540.845,538.62,0.0
52272.0,STARLINK-3781,PAYLOAD,2024-07-27 11:37:32,15.08845703,0.0001597,53.2155,238.6956,87.3683,272.7492,2.2111e-05,6.4e-07,0.0,0 STARLINK-3781,1 52272U 22041M   24209.48440535  .00000064  00000-0  22111-4 0  9998,2 52272  53.2155 238.6956 0001597  87.3683 272.7492 15.08845703126493,6917.863,95.437,540.833,538.623,0.0
52272.0,STARLINK-3781,PAYLOAD,2024-07-28 11:28:20,15.08837319,0.0001496,53.2152,234.2327,96.384,263.7322,-5.4782e-05,-1.16e-05,0.0,0 STARLINK-3781,1 52272U 22041M   24210.47801173 -.00001160  00000-0 -54782-4 0  9997,2 52272  53.2152 234.2327 0001496  96.3840 263.7322 15.08837319126640,6917.889,95.438,540.788,538.719,0.0
52272.0,STARLINK-3781,PAYLOAD,2024-07-29 11:19:07,15.08836224,0.0001373,53.2146,229.7741,87.4333,272.6816,2.3407e-05,8.5e-07,0.0,0 STARLINK-3781,1 52272U 22041M   24211.47161186  .00000085  00000-0  23407-4 0  9994,2 52272  53.2146 229.7741 0001373  87.4333 272.6816 15.08836224125565,6917.892,95.438,540.707,538.807,0.0
52272.0,STARLINK-3781,PAYLOAD,2024-07-30 04:48:21,15.08836791,0.000135,53.2148,226.5028,86.8402,273.2744,6.1773e-05,6.95e-06,0.0,0 STARLINK-3781,1 52272U 22041M   24212.20025180  .00000695  00000-0  61773-4 0  9994,2 52272  53.2148 226.5028 0001350  86.8402 273.2744 15.08836791126900,6917.89,95.438,540.689,538.821,0.0
52272.0,STARLINK-3781,PAYLOAD,2024-07-30 07:59:07,15.08839181,0.0001338,53.2147,225.9087,86.6686,273.4459,7.5804e-05,9.19e-06,0.0,0 STARLINK-3781,1 52272U 22041M   24212.33273018  .00000919  00000-0  75804-4 0  9992,2 52272  53.2147 225.9087 0001338  86.6686 273.4459 15.08839181125691,6917.883,95.438,540.674,538.822,0.0
52272.0,STARLINK-3781,PAYLOAD,2024-07-30 17:31:26,15.08839043,0.0001338,53.2147,224.1246,86.1619,273.9526,6.6346e-05,7.68e-06,0.0,0 STARLINK-3781,1 52272U 22041M   24212.73017102  .00000768  00000-0  66346-4 0  9999,2 52272  53.2147 224.1246 0001338  86.1619 273.9526 15.08839043125754,6917.883,95.438,540.674,538.823,0.0
52272.0,STARLINK-3781,PAYLOAD,2024-07-31 07:49:54,15.08841391,0.0001349,53.2151,221.4487,87.3046,272.8101,6.196e-05,6.98e-06,0.0,0 STARLINK-3781,1 52272U 22041M   24213.32633052  .00000698  00000-0  61960-4 0  9992,2 52272  53.2151 221.4487 0001349  87.3046 272.8101 15.08841391127078,6917.876,95.437,540.674,538.808,0.0
52272.0,STARLINK-3781,PAYLOAD,2024-07-31 17:22:13,15.08838789,0.0001328,53.2149,219.6646,86.5004,273.614,3.2625e-05,2.31e-06,0.0,0 STARLINK-3781,1 52272U 22041M   24213.72377287  .00000231  00000-0  32625-4 0  9990,2 52272  53.2149 219.6646 0001328  86.5004 273.6140 15.08838789125902,6917.884,95.438,540.668,538.83,0.0
52272.0,STARLINK-3781,PAYLOAD,2024-08-01 04:29:56,15.0883231,0.0001409,53.2157,217.5839,89.8602,270.2551,-3.285e-05,-8.11e-06,0.0,0 STARLINK-3781,1 52272U 22041M   24214.18746079 -.00000811  00000-0 -32850-4 0  9996,2 52272  53.2157 217.5839 0001409  89.8602 270.2551 15.08832310127200,6917.904,95.438,540.744,538.794,0.0
52272.0,STARLINK-3781,PAYLOAD,2024-08-01 09:16:05,15.08834901,0.0001441,53.2157,216.6921,90.666,269.4497,-8.3524e-06,-4.21e-06,0.0,0 STARLINK-3781,1 52272U 22041M   24214.38617896 -.00000421  00000-0 -83524-5 0  9994,2 52272  53.2157 216.6921 0001441  90.6660 269.4497 15.08834901126006,6917.896,95.438,540.758,538.764,0.0
52272.0,STARLINK-3781,PAYLOAD,2024-08-01 18:48:24,15.08838536,0.0001407,53.2156,214.9071,87.3293,272.786,2.6141e-05,1.28e-06,0.0,0 STARLINK-3781,1 52272U 22041M   24214.78361631  .00000128  00000-0  26141-4 0  9994,2 52272  53.2156 214.9071 0001407  87.3293 272.7860 15.08838536127290,6917.885,95.438,540.723,538.777,0.0
52272.0,STARLINK-3781,PAYLOAD,2024-08-02 09:06:52,15.08845309,0.0001415,53.2154,212.2305,86.3287,273.7867,7.103e-05,8.43e-06,0.0,0 STARLINK-3781,1 52272U 22041M   24215.37977024  .00000843  00000-0  71030-4 0  9990,2 52272  53.2154 212.2305 0001415  86.3287 273.7867 15.08845309127384,6917.864,95.437,540.708,538.75,0.0
52272.0,STARLINK-3781,PAYLOAD,2024-08-02 17:03:48,15.08840785,0.000144,53.2156,210.744,87.004,273.1117,4.3076e-05,3.98e-06,0.0,0 STARLINK-3781,1 52272U 22041M   24215.71097410  .00000398  00000-0  43076-4 0  9994,2 52272  53.2156 210.7440 0001440  87.0040 273.1117 15.08840785126207,6917.878,95.438,540.739,538.747,0.0
52272.0,STARLINK-3781,PAYLOAD,2024-08-03 05:46:53,15.08834742,0.0001348,53.2148,208.3651,89.4154,270.6993,7.9294e-05,9.74e-06,0.0,0 STARLINK-3781,1 52272U 22041M   24216.24089758  .00000974  00000-0  79294-4 0  9990,2 52272  53.2148 208.3651 0001348  89.4154 270.6993 15.08834742127519,6917.896,95.438,540.694,538.829,0.0
52272.0,STARLINK-3781,PAYLOAD,2024-08-03 08:57:39,15.08840086,0.0001382,53.215,207.7697,90.7088,269.4063,8.3971e-05,1.049e-05,0.0,0 STARLINK-3781,1 52272U 22041M   24216.37337432  .00001049  00000-0  83971-4 0  9990,2 52272  53.2150 207.7697 0001382  90.7088 269.4063 15.08840086126302,6917.88,95.438,540.701,538.789,0.0
